STARLINK-5539           
1 55747U 23028G   26068.85733490  .00000320  00000+0  34605-4 0  9990
2 55747  69.9992 244.0974 0002582 271.1358  88.9505 14.98332394166068
UM5-RIBAT               
1 60554U 24149CQ  26068.79561721  .00004725  00000+0  37993-3 0  9991
2 60554  97.6776 147.9138 0003272  87.0399 273.1199 15.00468196 85282
